satname,norad_id,inclination_deg,eccentricity,mean_motion_rev_per_day,perigee_km,apogee_km,l1,l2
STARLINK-1392,45677,53.1571,0.0001351,15.29371129,476.76482413051417,478.61726886867837,1 45677U 20035W   26086.43227141  .00000944  00000+0  45035-4 0  9992,2 45677  53.1571 342.4478 0001351  94.1614 265.9541 15.29371129321479
STARLINK-1394,45679,53.0477,0.000382,15.5286182,405.78273782769065,410.9676331374003,1 45679U 20035Y   26086.84755112  .00085305  00000+0  13437-2 0  9996,2 45679  53.0477 309.2434 0003820 207.1144 152.9666 15.52861820321971
STARLINK-1402,45685,53.0463,0.0002355,15.47528637,422.3563981277848,425.56018501011476,1 45685U 20035AE  26086.88160478  .00071463  00000+0  13631-2 0  9998,2 45685  53.0463 296.5826 0002355 263.3949  96.6790 15.47528637322169
STARLINK-1404,45686,53.161,0.0001787,15.36393062,455.56444393356014,458.007245358237,1 45686U 20035AF  26086.91667824  .00923418  00000+0  23788-1 0  9999,2 45686  53.1610 324.9094 0001787  81.0772 334.2797 15.36393062  5857
STARLINK-1413,45689,53.1613,0.0001331,15.30194234,474.3201022581279,476.1444691619845,1 45689U 20035AJ  26086.40250004  .00002110  00000+0  83366-4 0  9992,2 45689  53.1613 327.3040 0001331  90.2985 269.8168 15.30194234321607
STARLINK-1417,45693,53.053,0.0001557,15.13419226,524.7068912316345,526.856771555731,1 45693U 20035AN  26086.82878398  .00009647  00000+0  54979-3 0  9994,2 45693  53.0530 332.0310 0001557 294.3239  65.7590 15.13419226321649
STARLINK-1420,45695,53.0514,0.0004251,15.57014447,393.42338035546254,399.18300940915015,1 45695U 20035AQ  26086.86185798  .00104524  00000+0  14091-2 0  9995,2 45695  53.0514 294.5092 0004251 196.7819 163.3052 15.57014447322187
STARLINK-1422,45696,53.1608,0.0001339,15.30197932,474.30357943263243,476.13890877040376,1 45696U 20035AR  26086.80175097  .00001364  00000+0  58173-4 0  9990,2 45696  53.1608 325.4546 0001339  84.7594 275.3560 15.30197932321742
STARLINK-1351,45697,53.0504,0.0004231,15.55583736,397.5882886747413,403.3243343349368,1 45697U 20035AS  26086.85437344  .00092188  00000+0  13132-2 0  9990,2 45697  53.0504 293.9283 0004231 215.2526 144.8205 15.55583736322198
STARLINK-1398,45699,53.0232,0.0008168,16.31933127,181.9871592667605,192.71253858316413,1 45699U 20035AU  26086.80535487  .05205995  12183-4  91279-3 0  9990,2 45699  53.0232 204.6283 0008168 311.5368  48.4973 16.31933127323431
STARLINK-1400,45700,53.0495,0.0007187,15.53567995,401.44250013705914,411.19447645593664,1 45700U 20035AV  26086.84640072  .00063243  00000+0  97497-3 0  9995,2 45700  53.0495 295.5575 0007187 164.0124 196.1113 15.53567995322164
STARLINK-1403,45701,53.1589,0.0001552,15.29360833,476.6577871577183,478.78584573434364,1 45701U 20035AW  26086.83217683  .00001636  00000+0  69016-4 0  9998,2 45701  53.1589 312.3487 0001552  88.2386 271.8792 15.29360833321929
STARLINK-1407,45703,53.0302,0.0005412,15.64064083,372.27648318215506,379.58708723526433,1 45703U 20035AY  26086.91667824  .00144866  00000+0  14810-2 0  9998,2 45703  53.0302 226.6782 0005412 179.4162  85.5572 15.64064083  5823
STARLINK-1411,45706,53.0416,0.0002981,15.65891512,368.6641793054414,372.6878216163159,1 45706U 20035BB  26086.91667824  .00160755  00000+0  15254-2 0  9999,2 45706  53.0416 252.1090 0002981 238.3852 184.3250 15.65891512  5947
STARLINK-1423,45710,53.0492,0.0007144,15.56100001,394.1153900781637,403.798501908198,1 45710U 20035BF  26086.84986884  .00101220  00000+0  14115-2 0  9993,2 45710  53.0492 294.2716 0007144 186.1697 173.9227 15.56100001322172
STARLINK-1433,45711,53.0485,0.0006829,15.58154431,388.37455229439,397.6225692432881,1 45711U 20035BG  26086.85114789  .00083659  00000+0  10842-2 0  9990,2 45711  53.0485 293.0417 0006829 178.4914 181.6119 15.58154431322191
STARLINK-1434,45712,53.054,0.00043,15.28293164,477.9650647952576,483.8638490482099,1 45712U 20035BH  26086.82249020  .00048439  00000+0  17351-2 0  9994,2 45712  53.0540 295.9397 0004300 152.8581 207.2643 15.28293164322168
STARLINK-1465,45731,53.0501,0.0005772,15.52699165,404.93168202755896,412.7665788165177,1 45731U 20038B   26086.55353766  .00075830  00000+0  12033-2 0  9998,2 45731  53.0501 137.2602 0005772 358.1569   1.9417 15.52699165319155
STARLINK-1471,45735,53.0471,0.0001622,15.49853826,416.0511034001347,418.2554955732876,1 45735U 20038F   26086.64327035  .00028189  00000+0  50331-3 0  9991,2 45735  53.0471  55.9466 0001622  17.3600 342.7463 15.49853826320318
STARLINK-1480,45741,53.0528,0.0001656,15.5460747,402.17090075830765,404.4169106742811,1 45741U 20038M   26086.91667824  .00106801  00000+0  15732-2 0  9994,2 45741  53.0528 129.7638 0001656  66.6014 325.3058 15.54607470  5856
STARLINK-1500,45744,53.0366,0.0003053,15.35733247,456.65611668182646,460.83071586400183,1 45744U 20038Q   26086.77465682  .00021216  00000+0  61082-3 0  9995,2 45744  53.0366 107.8532 0003053 357.5242   2.5744 15.35733247319593
STARLINK-1504,45746,53.023,0.0001092,15.54374407,403.23115462900296,404.7123671823856,1 45746U 20038S   26086.88992008  .00034412  00000+0  52077-3 0  9992,2 45746  53.0230  54.2991 0001092  51.9697 308.1411 15.54374407320340
STARLINK-1506,45747,53.0763,0.0003104,15.2657836,483.919362707632,488.18065000117804,1 45747U 20038T   26086.79704406  .00006309  00000+0  25082-3 0  9996,2 45747  53.0763 118.5797 0003104 335.0075  25.0773 15.26578360319451
STARLINK-1464,45751,53.0507,0.0004054,15.45662857,426.67130601761073,432.1908822283249,1 45751U 20038X   26086.81028845  .00063288  00000+0  12894-2 0  9995,2 45751  53.0507 118.3396 0004054 359.8042   0.2962 15.45662857319459
STARLINK-1477,45754,53.0487,0.0002674,15.15286008,518.2658094426251,521.9549921525713,1 45754U 20038AA  26086.84181435  .00010666  00000+0  57524-3 0  9998,2 45754  53.0487 130.3895 0002674  36.0214 324.0959 15.15286008319289
STARLINK-1478,45755,53.0492,0.000427,15.58096079,390.27626909870924,396.05896324091736,1 45755U 20038AB  26086.54529104  .00085455  00000+0  11102-2 0  9994,2 45755  53.0492 111.3421 0004270 353.4706   6.6249 15.58096079319511
STARLINK-1493,45759,53.0514,0.0004618,15.53093614,404.5662264422617,410.83362542705527,1 45759U 20038AF  26086.86998822  .00077770  00000+0  12165-2 0  9991,2 45759  53.0514 117.0360 0004618  55.9976 304.1471 15.53093614319468
STARLINK-1494,45760,53.0489,0.000667,15.77441202,333.213958986802,342.1728767642471,1 45760U 20038AG  26086.19522729  .00115557  00000+0  67785-3 0  9993,2 45760  53.0489  64.3521 0006670  65.4641 294.7074 15.77441202320156
STARLINK-1502,45764,53.0512,0.0005867,15.49750246,413.4691042787663,421.4430531973576,1 45764U 20038AL  26086.82213574  .00073448  00000+0  12952-2 0  9999,2 45764  53.0512 119.2283 0005867  46.9715 313.1784 15.49750246319449
STARLINK-1470,45772,53.0466,0.0003193,15.29392849,475.4370915031586,479.8151818422375,1 45772U 20038AU  26086.71792603  .00044626  00000+0  15476-2 0  9991,2 45772  53.0466  90.5421 0003193  53.3609 306.7683 15.29392849319833
STARLINK-1482,45773,53.1598,0.0002446,15.3141956,469.9006600189514,473.25153966739526,1 45773U 20038AV  26086.83238522  .00030450  00000+0  99761-3 0  9990,2 45773  53.1598 106.6827 0002446  65.8924 294.2333 15.31419560319621
STARLINK-1496,45780,53.0502,0.0001771,15.50948855,412.75155431479925,415.1573131006189,1 45780U 20038BC  26086.44182608  .00075339  00000+0  12735-2 0  9998,2 45780  53.0502  92.6822 0001771 325.1287  34.9605 15.50948855319767
STARLINK-1513,45786,53.1607,0.0001472,15.30194601,474.2223741099915,476.2400057051,1 45786U 20038BJ  26086.78269736  .00000593  00000+0  32151-4 0  9995,2 45786  53.1607 107.1120 0001472  82.6477 277.4691 15.30194601319610
STARLINK-1522,46027,53.0649,0.0002466,15.09820136,535.0439152279159,538.4543370653328,1 46027U 20055A   26086.29427161  .00025021  00000+0  15426-2 0  9994,2 46027  53.0649  47.0939 0002466  94.2362 265.8910 15.09820136311544
STARLINK-1523,46028,53.1582,0.0001247,15.29377563,476.81689908723183,478.52673780655186,1 46028U 20055B   26086.61364632  .00000668  00000+0  35467-4 0  9993,2 46028  53.1582  43.4412 0001247  92.0617 268.0526 15.29377563311645
STARLINK-1526,46029,53.1568,0.0002523,15.29368581,475.9689339148372,479.42838858950563,1 46029U 20055C   26086.86423084  .00001996  00000+0  81486-4 0  9995,2 46029  53.1568  42.2449 0002523  84.6349 275.4939 15.29368581311677
STARLINK-1555,46032,53.1593,0.0002538,15.30211146,473.4424173655934,476.9211619832322,1 46032U 20055F   26086.85358562  .00002411  00000+0  93478-4 0  9993,2 46032  53.1593  42.3308 0002538  88.7907 271.3384 15.30211146311670
STARLINK-1556,46033,53.1566,0.0001513,15.29435188,476.4623539344393,478.53686957315585,1 46033U 20055G   26086.30448949  .00032725  00000+0  11386-2 0  9990,2 46033  53.1566  44.7973 0001513 104.1116 256.0052 15.29435188311564
STARLINK-1557,46034,53.1562,0.0001395,15.29389903,476.67856046459747,478.591320836038,1 46034U 20055H   26086.29826304  .00008859  00000+0  31865-3 0  9990,2 46034  53.1562  44.7256 0001395  92.0772 268.0388 15.29389903311564
STARLINK-1558,46035,53.1548,0.000286,15.29483944,475.3932472450324,479.3145880499269,1 46035U 20055J   26086.58522098  .00038844  00000+0  13460-2 0  9993,2 46035  53.1548  43.5779 0002860  63.5297 296.5996 15.29483944311638
STARLINK-1560,46036,53.1571,0.000156,15.29379223,476.5973521457181,478.7363629492738,1 46036U 20055K   26086.29503262  .00011081  00000+0  39548-3 0  9994,2 46036  53.1571  44.7800 0001560  92.1076 268.0103 15.29379223311595
STARLINK-1567,46038,53.0887,0.0001564,15.50858037,413.157269077984,415.28191822047756,1 46038U 20055M   26086.16866226  .00415230  00000+0  67074-2 0  9992,2 46038  53.0887  44.4617 0001564 130.3328 229.7817 15.50858037311571
STARLINK-1569,46039,53.1599,0.0002232,15.30203356,473.67538308121857,476.7347149719035,1 46039U 20055N   26086.85043114  .00000011  00000+0  12510-4 0  9996,2 46039  53.1599  42.3509 0002232  88.3804 271.7452 15.30203356311662
